;FLAVOR:Marlin
;TIME:420
;Layer height: 0.20
;Generated with Cura_SteamEngine 5.9.0
M82
G21
G90
M104 S205
M140 S60
G28
G92 E0
G1 Z0.20 F1200
G1 X90 Y90 F9000
;LAYER:0
G1 X110 Y90 E0.82 F1800
G1 X118 Y98 E1.31
G1 X118 Y122 E2.18
G1 X110 Y130 E2.67
G1 X90 Y130 E3.40
G1 X82 Y122 E3.89
G1 X82 Y98 E4.76
G1 X90 Y90 E5.25
G0 X93 Y93 F9000
G1 X107 Y93 E5.79 F2100
G1 X115 Y101 E6.28
G1 X115 Y119 E6.93
G1 X107 Y127 E7.42
G1 X93 Y127 E7.96
G1 X85 Y119 E8.45
G1 X85 Y101 E9.10
G1 X93 Y93 E9.59
G92 E0
;LAYER:1
G0 X92 Y90 Z0.40 F9000
G1 X110 Y90 E0.70 F1800
G1 X119 Y99 E1.25
G1 X119 Y121 E2.05
G1 X110 Y130 E2.60
G1 X90 Y130 E3.33
G1 X81 Y121 E3.88
G1 X81 Y99 E4.68
G1 X90 Y90 E5.23
G0 X95 Y95 F9000
G1 X105 Y95 E5.60 F2100
G1 X114 Y104 E6.15
G1 X114 Y116 E6.59
G1 X105 Y125 E7.14
G1 X95 Y125 E7.51
G1 X86 Y116 E8.06
G1 X86 Y104 E8.50
G1 X95 Y95 E9.05
G92 E0
;LAYER:2
G0 X95 Y92 Z0.60 F9000
G1 X108 Y92 E0.48 F1800
G1 X118 Y102 E1.09
G1 X118 Y118 E1.67
G1 X108 Y128 E2.28
G1 X92 Y128 E2.86
G1 X82 Y118 E3.47
G1 X82 Y102 E4.05
G1 X92 Y92 E4.66
G0 X98 Y98 F9000
G1 X102 Y98 E4.80 F2200
G1 X112 Y108 E5.41
G1 X112 Y112 E5.56
G1 X102 Y122 E6.17
G1 X98 Y122 E6.31
G1 X88 Y112 E6.92
G1 X88 Y108 E7.07
G1 X98 Y98 E7.68
M104 S0
M140 S0
